{
  "type": "FeatureCollection",
  "features": [
    {
      "type": "Feature",
      "properties": {
        "norad_id": 34590,
        "name": "COSMOS 2251 DEB",
        "group": "cosmos-2251-debris",
        "lat": 12.149672678510296,
        "lon": 111.87322895673718,
        "alt_km": 724.1046567721005,
        "timestamp": "2025-12-27T02:10:16.583735+00:00",
        "meta_object_name": "COSMOS 2251 DEB",
        "meta_object_id": "1993-036WC",
        "meta_epoch": "2025-12-25T21:36:51.910848",
        "meta_mean_motion": 14.5484121,
        "meta_eccentricity": 0.0068093,
        "meta_inclination": 74.0446,
        "meta_ra_of_asc_node": 297.6543,
        "meta_arg_of_pericenter": 63.4192,
        "meta_mean_anomaly": 353.7708,
        "meta_ephemeris_type": 0,
        "meta_classification_type": "U",
        "meta_norad_cat_id": 34590,
        "meta_element_set_no": 999,
        "meta_rev_at_epoch": 89312,
        "meta_bstar": 0.00014464,
        "meta_mean_motion_dot": 6.1e-06,
        "meta_mean_motion_ddot": 0,
        "tle_line1": "1 34590U 93036WC  25359.90060082  .00000610  00000+0  14464-3 0  9999",
        "tle_line2": "2 34590  74.0446 297.6543 0068093  63.4192 353.7708 14.54841210893121"
      },
      "geometry": {
        "type": "Point",
        "coordinates": [
          111.87322895673718,
          12.149672678510296
        ]
      }
    },
    {
      "type": "Feature",
      "properties": {
        "norad_id": 34609,
        "name": "COSMOS 2251 DEB",
        "group": "cosmos-2251-debris",
        "lat": 32.392525210870666,
        "lon": 91.17075016329815,
        "alt_km": 826.7265881804306,
        "timestamp": "2025-12-27T02:10:16.583745+00:00",
        "meta_object_name": "COSMOS 2251 DEB",
        "meta_object_id": "1993-036WE",
        "meta_epoch": "2025-12-24T00:34:30.192384",
        "meta_mean_motion": 14.2183063,
        "meta_eccentricity": 0.01457677,
        "meta_inclination": 73.7329,
        "meta_ra_of_asc_node": 86.098,
        "meta_arg_of_pericenter": 303.8546,
        "meta_mean_anomaly": 238.3232,
        "meta_ephemeris_type": 0,
        "meta_classification_type": "U",
        "meta_norad_cat_id": 34609,
        "meta_element_set_no": 999,
        "meta_rev_at_epoch": 86792,
        "meta_bstar": 0.00072342659,
        "meta_mean_motion_dot": 1.747e-05,
        "meta_mean_motion_ddot": 0,
        "tle_line1": "1 34609U 93036WE  25358.02396056  .00001747  00000+0  72343-3 0  9997",
        "tle_line2": "2 34609  73.7329  86.0980 0145767 303.8546 238.3232 14.21830630867928"
      },
      "geometry": {
        "type": "Point",
        "coordinates": [
          91.17075016329815,
          32.392525210870666
        ]
      }
    },
    {
      "type": "Feature",
      "properties": {
        "norad_id": 34610,
        "name": "COSMOS 2251 DEB",
        "group": "cosmos-2251-debris",
        "lat": 20.338994708340106,
        "lon": 51.05184770159513,
        "alt_km": 986.2748450276176,
        "timestamp": "2025-12-27T02:10:16.583755+00:00",
        "meta_object_name": "COSMOS 2251 DEB",
        "meta_object_id": "1993-036WF",
        "meta_epoch": "2025-12-26T16:53:37.068000",
        "meta_mean_motion": 14.07151035,
        "meta_eccentricity": 0.0180769,
        "meta_inclination": 74.0165,
        "meta_ra_of_asc_node": 237.8285,
        "meta_arg_of_pericenter": 5.2396,
        "meta_mean_anomaly": 355.0575,
        "meta_ephemeris_type": 0,
        "meta_classification_type": "U",
        "meta_norad_cat_id": 34610,
        "meta_element_set_no": 999,
        "meta_rev_at_epoch": 85756,
        "meta_bstar": 0.0019626,
        "meta_mean_motion_dot": 3.789e-05,
        "meta_mean_motion_ddot": 0,
        "tle_line1": "1 34610U 93036WF  25360.70390125  .00003789  00000+0  19626-2 0  9990",
        "tle_line2": "2 34610  74.0165 237.8285 0180769   5.2396 355.0575 14.07151035857568"
      },
      "geometry": {
        "type": "Point",
        "coordinates": [
          51.05184770159513,
          20.338994708340106
        ]
      }
    },
    {
      "type": "Feature",
      "properties": {
        "norad_id": 34611,
        "name": "COSMOS 2251 DEB",
        "group": "cosmos-2251-debris",
        "lat": -19.35014655927952,
        "lon": -101.04831548504458,
        "alt_km": 666.8518632559717,
        "timestamp": "2025-12-27T02:10:16.583765+00:00",
        "meta_object_name": "COSMOS 2251 DEB",
        "meta_object_id": "1993-036WG",
        "meta_epoch": "2025-12-26T12:15:57.945312",
        "meta_mean_motion": 14.69738867,
        "meta_eccentricity": 0.0021375,
        "meta_inclination": 74.0531,
        "meta_ra_of_asc_node": 74.3099,
        "meta_arg_of_pericenter": 110.4672,
        "meta_mean_anomaly": 265.0492,
        "meta_ephemeris_type": 0,
        "meta_classification_type": "U",
        "meta_norad_cat_id": 34611,
        "meta_element_set_no": 999,
        "meta_rev_at_epoch": 88593,
        "meta_bstar": 0.0013572,
        "meta_mean_motion_dot": 8.098e-05,
        "meta_mean_motion_ddot": 0,
        "tle_line1": "1 34611U 93036WG  25360.51108733  .00008098  00000+0  13572-2 0  9994",
        "tle_line2": "2 34611  74.0531  74.3099 0021375 110.4672 265.0492 14.69738867885938"
      },
      "geometry": {
        "type": "Point",
        "coordinates": [
          -101.04831548504458,
          -19.35014655927952
        ]
      }
    },
    {
      "type": "Feature",
      "properties": {
        "norad_id": 34613,
        "name": "COSMOS 2251 DEB",
        "group": "cosmos-2251-debris",
        "lat": -38.55873887379199,
        "lon": 85.74740158189844,
        "alt_km": 869.8193365176548,
        "timestamp": "2025-12-27T02:10:16.583775+00:00",
        "meta_object_name": "COSMOS 2251 DEB",
        "meta_object_id": "1993-036WJ",
        "meta_epoch": "2025-12-26T18:41:13.104960",
        "meta_mean_motion": 14.26516068,
        "meta_eccentricity": 0.0110872,
        "meta_inclination": 73.9631,
        "meta_ra_of_asc_node": 253.0594,
        "meta_arg_of_pericenter": 81.2863,
        "meta_mean_anomaly": 337.3921,
        "meta_ephemeris_type": 0,
        "meta_classification_type": "U",
        "meta_norad_cat_id": 34613,
        "meta_element_set_no": 999,
        "meta_rev_at_epoch": 86663,
        "meta_bstar": 0.0011869,
        "meta_mean_motion_dot": 3.029e-05,
        "meta_mean_motion_ddot": 0,
        "tle_line1": "1 34613U 93036WJ  25360.77862390  .00003029  00000+0  11869-2 0  9996",
        "tle_line2": "2 34613  73.9631 253.0594 0110872  81.2863 337.3921 14.26516068866639"
      },
      "geometry": {
        "type": "Point",
        "coordinates": [
          85.74740158189844,
          -38.55873887379199
        ]
      }
    },
    {
      "type": "Feature",
      "properties": {
        "norad_id": 34614,
        "name": "COSMOS 2251 DEB",
        "group": "cosmos-2251-debris",
        "lat": 41.1228876807194,
        "lon": -27.32025701097245,
        "alt_km": 834.4995503920036,
        "timestamp": "2025-12-27T02:10:16.583785+00:00",
        "meta_object_name": "COSMOS 2251 DEB",
        "meta_object_id": "1993-036WK",
        "meta_epoch": "2025-12-24T21:37:08.839200",
        "meta_mean_motion": 14.17833523,
        "meta_eccentricity": 0.0196231,
        "meta_inclination": 73.8822,
        "meta_ra_of_asc_node": 321.9977,
        "meta_arg_of_pericenter": 314.2153,
        "meta_mean_anomaly": 74.3764,
        "meta_ephemeris_type": 0,
        "meta_classification_type": "U",
        "meta_norad_cat_id": 34614,
        "meta_element_set_no": 999,
        "meta_rev_at_epoch": 84939,
        "meta_bstar": 0.0067486,
        "meta_mean_motion_dot": 0.0001667,
        "meta_mean_motion_ddot": 0,
        "tle_line1": "1 34614U 93036WK  25358.90079675  .00016670  00000+0  67486-2 0  9997",
        "tle_line2": "2 34614  73.8822 321.9977 0196231 314.2153  74.3764 14.17833523849390"
      },
      "geometry": {
        "type": "Point",
        "coordinates": [
          -27.32025701097245,
          41.1228876807194
        ]
      }
    },
    {
      "type": "Feature",
      "properties": {
        "norad_id": 34615,
        "name": "COSMOS 2251 DEB",
        "group": "cosmos-2251-debris",
        "lat": 27.045324701707383,
        "lon": 82.70470933751075,
        "alt_km": 787.8820599665723,
        "timestamp": "2025-12-27T02:10:16.583795+00:00",
        "meta_object_name": "COSMOS 2251 DEB",
        "meta_object_id": "1993-036WL",
        "meta_epoch": "2025-12-26T18:29:29.955840",
        "meta_mean_motion": 13.52208084,
        "meta_eccentricity": 0.0400092,
        "meta_inclination": 74.0044,
        "meta_ra_of_asc_node": 271.6381,
        "meta_arg_of_pericenter": 175.8414,
        "meta_mean_anomaly": 220.5303,
        "meta_ephemeris_type": 0,
        "meta_classification_type": "U",
        "meta_norad_cat_id": 34615,
        "meta_element_set_no": 999,
        "meta_rev_at_epoch": 83005,
        "meta_bstar": 0.00029425,
        "meta_mean_motion_dot": 3e-06,
        "meta_mean_motion_ddot": 0,
        "tle_line1": "1 34615U 93036WL  25360.77048560  .00000300  00000+0  29425-3 0  9990",
        "tle_line2": "2 34615  74.0044 271.6381 0400092 175.8414 220.5303 13.52208084830057"
      },
      "geometry": {
        "type": "Point",
        "coordinates": [
          82.70470933751075,
          27.045324701707383
        ]
      }
    }
  ]
}